STARLINK-1176_new
1 15090C 20006AY  21326.16601835  .00003641  00000-0  24396-3 0  3265
2 15090  53.0542  87.9950 0001263  71.6391 226.5398 15.06390929    16
STARLINK-1176_old
1 25090C 20006AY  21325.12586198 -.00000664  00000-0 -44477-4 0  3250
2 25090  53.0543  92.6641 0001427  72.5832 341.6190 15.06412650    14
